STARLINK-36527          
1 67631U 26020Q   26052.53809894  .00397608  00000+0  17855-2 0  9994
2 67631  42.9978 239.7330 0002394 248.9246 111.1370 15.82253684  3544
STARLINK-36633          
1 67632U 26020R   26052.58335648 -.00045657  00000+0 -27889-3 0  9996
2 67632  42.9993 239.5807 0001866 248.7808 319.8557 15.76364883  4805
STARLINK-36637          
1 67633U 26020S   26052.57511247  .00360966  00000+0  21215-2 0  9994
2 67633  42.9980 240.0351 0002024 297.4283  62.6381 15.76420587  3540
STARLINK-36617          
1 67634U 26020T   26051.90475623  .00377542  00000+0  17070-2 0  9990
2 67634  42.9994 243.5856 0002439 287.1807  72.8797 15.82158698  3443
STARLINK-36627          
1 67635U 26020U   26052.56854504  .00349191  00000+0  20395-2 0  9996
2 67635  42.9981 239.9795 0002679 249.1051 110.9532 15.76594996  3546
STARLINK-36624          
1 67636U 26020V   26052.58335648  .00028595  00000+0  17827-3 0  9991
2 67636  42.9994 239.6117 0001529 263.1370 293.0669 15.76331392  4802
STARLINK-36610          
1 67637U 26020W   26052.57073432  .00431542  00000+0  25169-2 0  9998
2 67637  42.9977 239.9981 0001890 278.2858  81.7797 15.76397548  3544
STARLINK-36599          
1 67638U 26020X   26052.59505837  .00375504  00000+0  17085-2 0  9993
2 67638  42.9983 239.2951 0003095 287.9163  72.1371 15.82028119  3552
STARLINK-36595          
1 67639U 26020Y   26052.58335648 -.00039361  00000+0 -23977-3 0  9992
2 67639  42.9990 239.5178 0001568 257.6680 335.8455 15.76372598  4803
STARLINK-36570          
1 67640U 26020Z   26052.56416704  .00262674  00000+0  15635-2 0  9999
2 67640  42.9990 239.9432 0002716 317.3520  42.7139 15.76409245  3548
STARLINK-36514          
1 67641U 26020AA  26052.52888506  .00332227  00000+0  15606-2 0  9999
2 67641  42.9993 239.6571 0003560 312.1344  47.9224 15.81453551  3545
STARLINK-36556          
1 67642U 26020AB  26052.55321312  .00326162  00000+0  19064-2 0  9993
2 67642  42.9983 239.8534 0002322 232.1943 127.8717 15.76642330  3541
